LEMUR-2-ARIANNA         
1 62699U 25009CU  26064.74056101  .00010278  00000+0  81338-3 0  9993
2 62699  97.7013 147.0800 0004484 155.5198 204.6239 15.00793276 62032
LEMUR-2-ALISIA          
1 62706U 25009DB  26064.73814534  .00010284  00000+0  80809-3 0  9992
2 62706  97.7061 147.7305 0006396 168.5385 191.5986 15.01059198 84639
LEMUR-2-ROUNDTRIPPER    
1 62711U 25009DG  26064.69770534  .00011337  00000+0  86915-3 0  9998
2 62711  97.7305 147.6551 0004816 135.0712 225.0903 15.01979624 62088
LEMUR-2-MYNAMEISJEFF    
1 62712U 25009DH  26064.69624324  .00011585  00000+0  88834-3 0  9991
2 62712  97.7353 147.9734 0003987 161.5510 198.5860 15.01969507 62081
LEMUR-2-LEIA-PHILIP     
1 63246U 25052AN  26064.67044151  .00007672  00000+0  67862-3 0  9994
2 63246  97.6965 318.3328 0002842 190.9818 169.1342 14.96577034 53184
LEMUR-2-LIA-MARTIN      
1 63248U 25052AQ  26064.69229539  .00007690  00000+0  67726-3 0  9992
2 63248  97.7008 318.7132 0003244 154.2491 205.8893 14.96744608 53192
LEMUR-2-DELOITTE-1      
1 63259U 25052BB  26064.66104257  .00007098  00000+0  62555-3 0  9997
2 63259  97.7051 318.9945 0003273  87.2840 272.8757 14.96744811 53202
LEMUR-2-EMERSONROSE     
1 63261U 25052BD  26064.67109601  .00007600  00000+0  64534-3 0  9997
2 63261  97.7033 319.3559 0003193  59.5586 300.5952 14.98172264 53239
LEMUR-2-MARACHE-FRAN    
1 63262U 25052BE  26064.70332381  .00009294  00000+0  77479-3 0  9998
2 63262  97.6996 319.5779 0002342  43.6001 316.5407 14.98825559 53250
LEMUR-2-THEFALCONER     
1 63264U 25052BG  26064.67214064  .00006604  00000+0  58680-3 0  9998
2 63264  97.6988 318.7378 0002595  28.5848 331.5516 14.96453929 53209
LEMUR-2-UNTITLED-SC     
1 63351U 25061A   26064.46004794  .00006465  00000+0  37230-3 0  9992
2 63351  97.5555  40.6976 0017147 262.5509  97.3774 15.12641591 51904
LEMUR-2-ESPERANZA       
1 63352U 25061B   26064.50919641  .00005961  00000+0  34294-3 0  9991
2 63352  97.5559  40.8168 0016738 261.5598  98.3736 15.12717532 51915
LEMUR-2-KREMPEL-BRO2    
1 63353U 25061C   26064.49928317  .00006437  00000+0  36574-3 0  9992
2 63353  97.5604  41.2084 0017765 253.6217 106.3060 15.13121415 51921
LEMUR-2-THERMORAPTOR    
1 63354U 25061D   26064.61837823  .00007361  00000+0  41677-3 0  9995
2 63354  97.5613  41.3837 0017554 252.1652 107.7665 15.13200980 51945
LEMUR-2-NEUROSPICY      
1 63355U 25061E   26064.66395674  .00006985  00000+0  39478-3 0  9991
2 63355  97.5541  41.1360 0015198 255.8040 104.1503 15.13315168 51956
LEMUR-2-TILLINFINITY    
1 63356U 25061F   26064.80519945  .00006988  00000+0  38840-3 0  9992
2 63356  97.5527  41.4944 0016632 242.4787 117.4755 15.13892510 51997
